NORAD_CAT_ID,OBJECT_NAME,OBJECT_TYPE,EPOCH,MEAN_MOTION,ECCENTRICITY,INCLINATION,RA_OF_ASC_NODE,ARG_OF_PERICENTER,MEAN_ANOMALY,BSTAR,MEAN_MOTION_DOT,MEAN_MOTION_DDOT,TLE_LINE0,TLE_LINE1,TLE_LINE2,SEMIMAJOR_AXIS,PERIOD,APOGEE,PERIGEE,DECAYED
53727.0,STARLINK-4701,PAYLOAD,2022-11-19 14:00:01,15.08864183,0.0001944,53.2158,268.5223,47.9414,275.1683,-0.0030515,-0.00048559,0.0,0 STARLINK-4701,1 53727U 22107AD  22323.58334491 -.00048559  00000-0 -30515-2 0  9994,2 53727  53.2158 268.5223 0001944  47.9414 275.1683 15.08864183  1305,6917.806,95.436,541.016,538.327,0.0
53727.0,STARLINK-4701,PAYLOAD,2022-11-19 22:00:00,15.08860039,0.0001877,53.2161,267.0255,50.1003,284.6031,-0.0024328,-0.0003882,0.0,0 STARLINK-4701,1 53727U 22107AD  22323.91667824 -.00038820  00000-0 -24328-2 0  9995,2 53727  53.2161 267.0255 0001877  50.1003 284.6031 15.08860039 11920,6917.819,95.436,540.9830000000002,538.386,0.0
53727.0,STARLINK-4701,PAYLOAD,2022-11-20 14:00:01,15.08831086,0.000189,53.2164,264.0327,46.6742,311.2076,0.00029591,4.423e-05,0.0,0 STARLINK-4701,1 53727U 22107AD  22324.58334491  .00004423  00000-0  29591-3 0  9998,2 53727  53.2164 264.0327 0001890  46.6742 311.2076 15.08831086 12023,6917.908,95.438,541.08,538.465,0.0
53727.0,STARLINK-4701,PAYLOAD,2022-11-20 22:00:00,15.08864457,0.0001866,53.2167,262.5364,49.2009,320.2602,-0.0021585,-0.000345,0.0,0 STARLINK-4701,1 53727U 22107AD  22324.91667824 -.00034500  00000-0 -21585-2 0  9999,2 53727  53.2167 262.5364 0001866  49.2009 320.2602 15.08864457  1300,6917.806,95.436,540.961,538.38,0.0
53727.0,STARLINK-4701,PAYLOAD,2022-11-21 14:00:01,15.0883691,0.0001857,53.2169,259.5434,46.9211,345.7343,0.00085206,0.00013297,0.0,0 STARLINK-4701,1 53727U 22107AD  22325.58334491  .00013297  00000-0  85206-3 0  9993,2 53727  53.2169 259.5434 0001857  46.9211 345.7343 15.08836910  1302,6917.89,95.438,541.039,538.47,0.0
53727.0,STARLINK-4701,PAYLOAD,2022-11-21 22:00:00,15.08877726,0.0001846,53.2171,258.0473,48.1847,356.0596,-0.0023928,-0.00038208,0.0,0 STARLINK-4701,1 53727U 22107AD  22325.91667824 -.00038208  00000-0 -23928-2 0  9992,2 53727  53.2171 258.0473 0001846  48.1847 356.0596 15.08877726  1304,6917.765,95.435,540.9069999999998,538.3530000000002,0.0
53727.0,STARLINK-4701,PAYLOAD,2022-11-22 14:00:01,15.08823117,0.0001716,53.217,255.0541,44.5708,22.9633,-0.00015127,-2.694e-05,0.0,0 STARLINK-4701,1 53727U 22107AD  22326.58335648 -.00002694  00000-0 -15127-3 0  9995,2 53727  53.2170 255.0541 0001716  44.5708  22.9633 15.08823117  1304,6917.932,95.439,540.984,538.61,0.0
53727.0,STARLINK-4701,PAYLOAD,2022-11-22 20:00:01,15.0882682,0.000169,53.2171,253.9319,47.5073,298.6405,0.0010712,0.00016795,0.0,0 STARLINK-4701,1 53727U 22107AD  22326.83334491  .00016795  00000-0  10712-2 0  9997,2 53727  53.2171 253.9319 0001690  47.5073 298.6405 15.08826820 12365,6917.920999999999,95.438,540.955,538.617,0.0
53727.0,STARLINK-4701,PAYLOAD,2022-11-23 14:00:01,15.08827151,0.000173,53.2166,250.5654,46.0154,56.2002,0.0017346,0.00027416,0.0,0 STARLINK-4701,1 53727U 22107AD  22327.58334491  .00027416  00000-0  17346-2 0  9992,2 53727  53.2166 250.5654 0001730  46.0154  56.2002 15.08827151  1304,6917.92,95.438,540.981,538.5880000000002,0.0
53727.0,STARLINK-4701,PAYLOAD,2022-11-23 16:00:00,15.08821011,0.0001724,53.2164,250.191,47.1659,147.9497,0.0030351,0.00048322,0.0,0 STARLINK-4701,1 53727U 22107AD  22327.66667824  .00048322  00000-0  30351-2 0  9990,2 53727  53.2164 250.1910 0001724  47.1659 147.9497 15.08821011 12484,6917.938,95.439,540.996,538.611,0.0
53727.0,STARLINK-4701,PAYLOAD,2022-11-23 22:00:00,15.08863376,0.0001806,53.2166,249.0696,47.7755,66.0246,-0.0014239,-0.00022893,0.0,0 STARLINK-4701,1 53727U 22107AD  22327.91667824 -.00022893  00000-0 -14239-2 0  9992,2 53727  53.2166 249.0696 0001806  47.7755  66.0246 15.08863376  1300,6917.809,95.436,540.923,538.425,0.0
53727.0,STARLINK-4701,PAYLOAD,2022-11-24 08:00:01,15.08864323,0.000189,53.216,247.2,42.1652,176.1481,-0.0025632,-0.00040878,0.0,0 STARLINK-4701,1 53727U 22107AD  22328.33334491 -.00040878  00000-0 -25632-2 0  9992,2 53727  53.2160 247.2000 0001890  42.1652 176.1481 15.08864323 12580,6917.806,95.436,540.979,538.364,0.0
53727.0,STARLINK-4701,PAYLOAD,2022-11-24 14:00:01,15.08818212,0.0001706,53.216,246.0765,45.4225,91.6082,0.0020583,0.00032602,0.0,0 STARLINK-4701,1 53727U 22107AD  22328.58334491  .00032602  00000-0  20583-2 0  9993,2 53727  53.2160 246.0765 0001706  45.4225  91.6082 15.08818212  1305,6917.946999999999,95.439,540.992,538.632,0.0
53727.0,STARLINK-4701,PAYLOAD,2022-11-24 22:00:00,15.08856956,0.0001807,53.216,244.5809,46.7974,101.8119,-0.0013754,-0.00022121,0.0,0 STARLINK-4701,1 53727U 22107AD  22328.91667824 -.00022121  00000-0 -13754-2 0  9998,2 53727  53.2160 244.5809 0001807  46.7974 101.8119 15.08856956 12678,6917.829000000002,95.436,540.944,538.444,0.0
53727.0,STARLINK-4701,PAYLOAD,2022-11-25 14:00:01,15.08814642,0.0001716,53.2155,241.5875,44.1309,127.6985,0.0026666,0.00042377,0.0,0 STARLINK-4701,1 53727U 22107AD  22329.58334491  .00042377  00000-0  26666-2 0  9992,2 53727  53.2155 241.5875 0001716  44.1309 127.6985 15.08814642  1306,6917.958000000001,95.439,541.01,538.636,0.0
53727.0,STARLINK-4701,PAYLOAD,2022-11-25 22:00:00,15.08859038,0.000184,53.2155,240.092,45.3607,138.0497,-0.00085161,-0.00013823,0.0,0 STARLINK-4701,1 53727U 22107AD  22329.91667824 -.00013823  00000-0 -85161-3 0  9990,2 53727  53.2155 240.0920 0001840  45.3607 138.0497 15.08859038 12824,6917.821999999999,95.436,540.96,538.414,0.0
53727.0,STARLINK-4701,PAYLOAD,2022-11-26 14:00:01,15.08832378,0.0001799,53.2153,237.0983,44.2438,162.4005,0.00094963,0.00014855,0.0,0 STARLINK-4701,1 53727U 22107AD  22330.58334491  .00014855  00000-0  94963-3 0  9990,2 53727  53.2153 237.0983 0001799  44.2438 162.4005 15.08832378  1305,6917.904,95.438,541.013,538.524,0.0
53727.0,STARLINK-4701,PAYLOAD,2022-11-26 22:00:00,15.08836838,0.0001978,53.2153,235.603,45.8778,172.361,-0.0013557,-0.00021798,0.0,0 STARLINK-4701,1 53727U 22107AD  22330.91667824 -.00021798  00000-0 -13557-2 0  9991,2 53727  53.2153 235.6030 0001978  45.8778 172.3610 15.08836838  1302,6917.89,95.438,541.123,538.387,0.0
53727.0,STARLINK-4701,PAYLOAD,2022-11-27 06:00:00,15.08834561,0.0002076,53.2151,234.1073,41.9619,187.8593,-0.00073562,-0.00011975,0.0,0 STARLINK-4701,1 53727U 22107AD  22331.25001157 -.00011975  00000-0 -73562-3 0  9999,2 53727  53.2151 234.1073 0002076  41.9619 187.8593 15.08834561 13026,6917.897,95.438,541.198,538.326,0.0
53727.0,STARLINK-4701,PAYLOAD,2022-11-27 14:00:01,15.08791364,0.0001892,53.2153,232.6091,45.4301,195.9824,0.0031899,0.00050778,0.0,0 STARLINK-4701,1 53727U 22107AD  22331.58334491  .00050778  00000-0  31899-2 0  9993,2 53727  53.2153 232.6091 0001892  45.4301 195.9824 15.08791364  1301,6918.029,95.441,541.203,538.585,0.0
53727.0,STARLINK-4701,PAYLOAD,2022-11-27 22:00:00,15.08833347,0.0002029,53.2154,231.1139,45.3148,207.653,-0.00092356,-0.00014954,0.0,0 STARLINK-4701,1 53727U 22107AD  22331.91667824 -.00014954  00000-0 -92356-3 0  9993,2 53727  53.2154 231.1139 0002029  45.3148 207.6530 15.08833347  1303,6917.901,95.438,541.169,538.362,0.0
53727.0,STARLINK-4701,PAYLOAD,2022-11-28 08:00:01,15.08862158,0.0002045,53.2152,229.2434,42.0381,315.4021,-0.0041548,-0.0006585,0.0,0 STARLINK-4701,1 53727U 22107AD  22332.33334491 -.00065850  00000-0 -41548-2 0  9998,2 53727  53.2152 229.2434 0002045  42.0381 315.4021 15.08862158 13193,6917.813,95.436,541.092,538.263,0.0
53727.0,STARLINK-4701,PAYLOAD,2022-11-28 22:00:01,15.08836099,0.0002023,53.2155,226.6247,44.5217,243.2525,-0.00088298,-0.00014312,0.0,0 STARLINK-4701,1 53727U 22107AD  22332.91668981 -.00014312  00000-0 -88298-3 0  9997,2 53727  53.2155 226.6247 0002023  44.5217 243.2525 15.08836099 13271,6917.892,95.438,541.1569999999998,538.3580000000002,0.0
53727.0,STARLINK-4701,PAYLOAD,2022-11-29 14:00:01,15.08828824,0.0001867,53.2155,223.6306,46.5739,264.384,0.00059219,9.146e-05,0.0,0 STARLINK-4701,1 53727U 22107AD  22333.58335648  .00009146  00000-0  59219-3 0  9990,2 53727  53.2155 223.6306 0001867  46.5739 264.3840 15.08828824 13372,6917.915,95.438,541.071,538.488,0.0
53727.0,STARLINK-4701,PAYLOAD,2022-11-29 22:00:00,15.08835398,0.000198,53.2156,222.1356,43.7318,278.7502,-0.00087841,-0.00014239,0.0,0 STARLINK-4701,1 53727U 22107AD  22333.91667824 -.00014239  00000-0 -87841-3 0  9994,2 53727  53.2156 222.1356 0001980  43.7318 278.7502 15.08835398  1308,6917.894,95.438,541.129,538.39,0.0
53727.0,STARLINK-4701,PAYLOAD,2022-11-30 14:00:01,15.08818012,0.0001822,53.2156,219.142,48.3736,297.3534,0.0035701,0.00056956,0.0,0 STARLINK-4701,1 53727U 22107AD  22334.58335648  .00056956  00000-0  35701-2 0  9991,2 53727  53.2156 219.1420 0001822  48.3736 297.3534 15.08818012  1302,6917.948,95.439,541.073,538.552,0.0
53727.0,STARLINK-4701,PAYLOAD,2022-11-30 22:00:00,15.08890966,0.000191,53.2165,217.6491,47.2453,310.0049,-0.0064363999999999,-0.00101428,0.0,0 STARLINK-4701,1 53727U 22107AD  22334.91667824 -.00101428  00000-0 -64364-2 0  9996,2 53727  53.2165 217.6491 0001910  47.2453 310.0049 15.08890966 13580,6917.725,95.434,540.911,538.268,0.0
53727.0,STARLINK-4701,PAYLOAD,2022-12-01 06:00:00,15.08839054,0.000197,53.2152,216.1506,41.725,327.1301,-0.0012425999999999,-0.0002001,0.0,0 STARLINK-4701,1 53727U 22107AD  22335.25001157 -.00020010  00000-0 -12426-2 0  9994,2 53727  53.2152 216.1506 0001970  41.7250 327.1301 15.08839054 13634,6917.8830000000025,95.438,541.111,538.385,0.0
53727.0,STARLINK-4701,PAYLOAD,2022-12-01 14:00:01,15.08814024,0.0001803,53.2152,214.6523,48.2656,332.1913,0.0034577,0.00055133,0.0,0 STARLINK-4701,1 53727U 22107AD  22335.58334491  .00055133  00000-0  34577-2 0  9993,2 53727  53.2152 214.6523 0001803  48.2656 332.1913 15.08814024  1309,6917.96,95.439,541.072,538.577,0.0
